stk.v.9.0

# WrittenBy    STK_v9.2.1

BEGIN Ephemeris

NumberOfEphemerisPoints 91

ScenarioEpoch            19 May 2020 04:00:00.000

# Epoch in JDate format: 2458988.66666666666667
# Epoch in YYDDD format:   20140.16666666666667


InterpolationMethod     Lagrange

InterpolationSamplesM1      5

CentralBody             Earth

CoordinateSystem        ICRF 

# Time of first point: 19 May 2020 04:00:00.000000000 UTCG = 2458988.66666666666667 JDate = 20140.16666666666667 YYDDD

EphemerisTimePosVel

0.00000000000000e+000 4.75378497474593e+006 -4.31891418361313e+006 -2.59761255371815e+006 1.71002113884347e+003 5.09915057756347e+003 -5.34865022021813e+003
6.00000000000000e+001 4.84605962847762e+006 -4.00387021170747e+006 -2.91269835304137e+006 1.36469453274862e+003 5.39853864135881e+003 -5.15043274456027e+003
1.20000000000000e+002 4.91743056821341e+006 -3.67155535083247e+006 -3.21522008629934e+006 1.01348125038658e+003 5.67463984605493e+003 -4.92999862666081e+003
1.80000000000000e+002 4.96758993193215e+006 -3.32340305730953e+006 -3.50387281127626e+006 6.57896267339356e+002 5.92626321567148e+003 -4.68829871981266e+003
2.40000000000000e+002 4.99632135477790e+006 -2.96091510299636e+006 -3.77741141039832e+006 2.99473416732551e+002 6.15232336056069e+003 -4.42637560832412e+003
3.00000000000000e+002 5.00350090236026e+006 -2.58565509732099e+006 -4.03465596160900e+006 -6.02412270284206e+001 6.35184515928848e+003 -4.14535911028062e+003
3.60000000000000e+002 4.98909760535141e+006 -2.19924174257645e+006 -4.27449682802025e+006 -4.19696017325526e+002 6.52396796486815e+003 -3.84646140401956e+003
4.20000000000000e+002 4.95317359307380e+006 -1.80334185156965e+006 -4.49589944438515e+006 -7.77340428431290e+002 6.66794931720309e+003 -3.53097179933995e+003
4.80000000000000e+002 4.89588382550230e+006 -1.39966315774322e+006 -4.69790877974554e+006 -1.13163174377697e+003 6.78316814572448e+003 -3.20025117600195e+003
5.40000000000000e+002 4.81747542483681e+006 -9.89946948784263e+005 -4.87965345700441e+006 -1.48104171053552e+003 6.86912744840944e+003 -2.85572611350579e+003
6.00000000000000e+002 4.71828660952861e+006 -5.75960555495161e+005 -5.04034951165351e+006 -1.82406313181455e+003 6.92545643562344e+003 -2.49888273747165e+003
6.60000000000000e+002 4.59874523535863e+006 -1.59489728326160e+005 -5.17930377344231e+006 -2.15921636802341e+003 6.95191212953938e+003 -2.13126030916451e+003
7.20000000000000e+002 4.45936694986072e+006 2.57669065546062e+005 -5.29591685640168e+006 -2.48505571937060e+003 6.94838041223435e+003 -1.75444458581581e+003
7.80000000000000e+002 4.30075296805094e+006 6.73716391366978e+005 -5.38968574432438e+006 -2.80017566196014e+003 6.91487651794278e+003 -1.37006098038246e+003
8.40000000000000e+002 4.12358747905730e+006 1.08685760875359e+006 -5.46020596054996e+006 -3.10321691058728e+003 6.85154496734286e+003 -9.79767550248932e+002
9.00000000000000e+002 3.92863469483666e+006 1.49531061296301e+006 -5.50717331269453e+006 -3.39287228208140e+003 6.75865894415953e+003 -5.85247845116127e+002
9.60000000000000e+002 3.71673555370936e+006 1.89731352208802e+006 -5.53038520479937e+006 -3.66789233390415e+003 6.63661911677324e+003 -1.88203644927768e+002
1.02000000000000e+003 3.48880409293072e+006 2.29113227702037e+006 -5.52974151123850e+006 -3.92709075368071e+003 6.48595190991734e+003 2.09652380840171e+002
1.08000000000000e+003 3.24582350594700e+006 2.67506812139914e+006 -5.50524500861542e+006 -4.16934947641589e+003 6.30730723391944e+003 6.06604060862573e+002
1.14000000000000e+003 2.98884190134254e+006 3.04746492927891e+006 -5.45700136378609e+006 -4.39362350732190e+003 6.10145568128153e+003 1.00093912475369e+003
1.20000000000000e+003 2.71896778177242e+006 3.40671634890968e+006 -5.38521867805980e+006 -4.59894542945422e+003 5.86928520269176e+003 1.39095658902878e+003
1.26000000000000e+003 2.43736526238232e+006 3.75127273181323e+006 -5.29020658954407e+006 -4.78442957671164e+003 5.61179727680596e+003 1.77497409437912e+003
1.32000000000000e+003 2.14524904934120e+006 4.07964781726727e+006 -5.17237493750560e+006 -4.94927585420011e+003 5.33010259032069e+003 2.15133516261074e+003
1.38000000000000e+003 1.84387920014714e+006 4.39042514336339e+006 -5.03223199450864e+006 -5.09277318948096e+003 5.02541624697216e+003 2.51841634194370e+003
1.44000000000000e+003 1.53455568830799e+006 4.68226415698436e+006 -4.87038227395655e+006 -5.21430259981651e+003 4.69905252612713e+003 2.87463420985035e+003
1.50000000000000e+003 1.21861279584244e+006 4.95390599634530e+006 -4.68752392249385e+006 -5.31333986218216e+003 4.35241921357492e+003 3.21845220322546e+003
1.56000000000000e+003 8.97413357789551e+005 5.20417892115520e+006 -4.48444570851669e+006 -5.38945777452799e+003 3.98701152897492e+003 3.54838724642588e+003
1.62000000000000e+003 5.72342883553557e+005 5.43200336697570e+006 -4.26202361978196e+006 -5.44232799853550e+003 3.60440567615382e+003 3.86301614858955e+003
1.68000000000000e+003 2.44803580441606e+005 5.63639660197477e+006 -4.02121708479152e+006 -5.47172247592101e+003 3.20625204407372e+003 4.16098174263849e+003
1.74000000000000e+003 -8.37916948256716e+004 5.81647696598836e+006 -3.76306483425067e+006 -5.47751441217610e+003 2.79426808779905e+003 4.44099873948506e+003
1.80000000000000e+003 -4.12025530540374e+005 5.97146767360436e+006 -3.48868042045270e+006 -5.45967882350193e+003 2.37023092017056e+003 4.70185927218891e+003
1.86000000000000e+003 -7.38482074081697e+005 6.10070016486428e+006 -3.19924741391690e+006 -5.41829264457805e+003 1.93596964614266e+003 4.94243810614989e+003
1.92000000000000e+003 -1.06175313926510e+006 6.20361698912917e+006 -2.89601429799951e+006 -5.35353439670092e+003 1.49335747285015e+003 5.16169749286217e+003
1.98000000000000e+003 -1.38044428062194e+006 6.27977420967008e+006 -2.58028908350008e+006 -5.26568341772362e+003 1.04430362943813e+003 5.35869164629294e+003
2.04000000000000e+003 -1.69318080840781e+006 6.32884331861072e+006 -2.25343366649318e+006 -5.15511865711841e+003 5.90745131509198e+002 5.53257082257650e+003
2.10000000000000e+003 -1.99861371839371e+006 6.35061265396219e+006 -1.91685795372345e+006 -5.02231704135977e+003 1.34638425712379e+002 5.68258498542572e+003
2.16000000000000e+003 -2.29542551086135e+006 6.34498831263723e+006 -1.57201378090425e+006 -4.86785141667884e+003 -3.22049049484678e+002 5.80808704145011e+003
2.22000000000000e+003 -2.58233587370234e+006 6.31199455550581e+006 -1.22038865015368e+006 -4.69238807806331e+003 -7.77347350437256e+002 5.90853563142462e+003
2.28000000000000e+003 -2.85810720510674e+006 6.25177370274466e+006 -8.63499313581805e+005 -4.49668389516159e+003 -1.22929252577134e+003 5.98349746546900e+003
2.34000000000000e+003 -3.12154995201868e+006 6.16458551993225e+006 -5.02885230706619e+005 -4.28158304748876e+003 -1.67593508798341e+003 6.03264919206478e+003
2.40000000000000e+003 -3.37152774133136e+006 6.05080609753734e+006 -1.40101927920545e+005 -4.04801338301712e+003 -2.11534842264966e+003 6.05577879284777e+003
2.46000000000000e+003 -3.60696228168775e+006 5.91092622863444e+006 2.23285711348376e+005 -3.79698241585889e+003 -2.54563709897103e+003 6.05278649715960e+003
2.52000000000000e+003 -3.82683801474277e+006 5.74554929184404e+006 5.85710196837267e+005 -3.52957298030498e+003 -2.96494504580621e+003 6.02368521241333e+003
2.58000000000000e+003 -4.03020649582368e+006 5.55538864862949e+006 9.45608192893960e+005 -3.24693855996666e+003 -3.37146355792482e+003 5.96860046841665e+003
2.64000000000000e+003 -4.21619048509232e+006 5.34126456617772e+006 1.30142726200137e+006 -2.95029831216783e+003 -3.76343909794537e+003 5.88776987589297e+003
2.70000000000000e+003 -4.38398773156177e+006 5.10410067913674e+006 1.65163256129227e+006 -2.64093180905061e+003 -4.13918086030413e+003 5.78154210153602e+003
2.76000000000000e+003 -4.53287443364511e+006 4.84492000547266e+006 1.99471346316868e+006 -2.32017351807864e+003 -4.49706806462721e+003 5.65037536401907e+003
2.82000000000000e+003 -4.66220836130870e+006 4.56484053363197e+006 2.32919007146753e+006 -1.98940704574675e+003 -4.83555694704548e+003 5.49483545744640e+003
2.88000000000000e+003 -4.77143162636274e+006 4.26507040004391e+006 2.65361960506470e+006 -1.65005916932704e+003 -5.15318741929523e+003 5.31559331077294e+003
2.94000000000000e+003 -4.86007308893909e+006 3.94690267776524e+006 2.96660262138169e+006 -1.30359368239563e+003 -5.44858936687986e+003 5.11342209371951e+003
3.00000000000000e+003 -4.92775038977600e+006 3.61170979874668e+006 3.26678905294920e+006 -9.51505080687928e+002 -5.72048855912549e+003 4.88919388166764e+003
3.06000000000000e+003 -4.97417159954342e+006 3.26093763378094e+006 3.55288403098888e+006 -5.95312115518533e+002 -5.96771214563691e+003 4.64387589392001e+003
3.12000000000000e+003 -4.99913647809438e+006 2.89609925566866e+006 3.82365347089280e+006 -2.36551242573514e+002 -6.18919371544487e+003 4.37852632155289e+003
3.18000000000000e+003 -5.00253733821056e+006 2.51876841250529e+006 4.07792939550746e+006 1.23230005665911e+002 -6.38397789702166e+003 4.09428976285746e+003
3.24000000000000e+003 -4.98435951011637e+006 2.13057273924212e+006 4.31461497326006e+006 4.82479695280055e+002 -6.55122447932268e+003 3.79239228605937e+003
3.30000000000000e+003 -4.94468140475775e+006 1.73318673680370e+006 4.53268924939486e+006 8.39648185253218e+002 -6.69021203607768e+003 3.47413614061384e+003
3.36000000000000e+003 -4.88367417557274e+006 1.32832454904665e+006 4.73121154991118e+006 1.19319481192561e+003 -6.80034103769806e+003 3.14089413988922e+003
3.42000000000000e+003 -4.80160098021277e+006 9.17732568716722e+005 4.90932553920652e+006 1.54159453472103e+003 -6.88113643737692e+003 2.79410373946975e+003
3.48000000000000e+003 -4.69881584539936e+006 5.03181904298704e+005 5.06626291392179e+006 1.88334451448356e+003 -6.93224972022659e+003 2.43526083662099e+003
3.54000000000000e+003 -4.57576213981261e+006 8.64607402538229e+004 5.20134671705524e+006 2.21697059604739e+003 -6.95346040661455e+003 2.06591331766412e+003
END Ephemeris
